NORAD_CAT_ID,OBJECT_NAME,OBJECT_TYPE,EPOCH,MEAN_MOTION,ECCENTRICITY,INCLINATION,RA_OF_ASC_NODE,ARG_OF_PERICENTER,MEAN_ANOMALY,BSTAR,MEAN_MOTION_DOT,MEAN_MOTION_DDOT,TLE_LINE0,TLE_LINE1,TLE_LINE2,SEMIMAJOR_AXIS,PERIOD,APOGEE,PERIGEE,DECAYED
52628.0,STARLINK-4001,PAYLOAD,2022-11-05 10:09:11,15.08837054,0.0002117,53.2181,2.1205,44.3903,315.7259,-3.5368000000000004e-05,-8.51e-06,0.0,0 STARLINK-4001,1 52628U 22052AG  22309.42305045 -.00000851  00000-0 -35368-4 0  9998,2 52628  53.2181   2.1205 0002117  44.3903 315.7259 15.08837054 26561,6917.889,95.438,541.219,538.29,0.0
52628.0,STARLINK-4001,PAYLOAD,2022-11-06 03:38:26,15.08825693,0.0002037,53.2194,358.8507,38.151,321.9626,-3.7612e-05,-8.87e-06,0.0,0 STARLINK-4001,1 52628U 22052AG  22310.15169943 -.00000887  00000-0 -37612-4 0  9998,2 52628  53.2194 358.8507 0002037  38.1510 321.9626 15.08825693 27055,6917.924,95.438,541.198,538.38,0.0
52628.0,STARLINK-4001,PAYLOAD,2022-11-06 09:59:59,15.08828999,0.0002148,53.2187,357.6605,36.4374,323.6764,-2.422e-05,-6.74e-06,0.0,0 STARLINK-4001,1 52628U 22052AG  22310.41666045 -.00000674  00000-0 -24220-4 0  9997,2 52628  53.2187 357.6605 0002148  36.4374 323.6764 15.08828999 26711,6917.9140000000025,95.438,541.265,538.293,0.0
52628.0,STARLINK-4001,PAYLOAD,2022-11-07 08:15:24,15.08830287,0.0002053,53.219,353.4975,41.3628,318.7519,0.0001268,1.73e-05,0.0,0 STARLINK-4001,1 52628U 22052AG  22311.34402893  .00001730  00000-0  12680-3 0  9997,2 52628  53.2190 353.4975 0002053  41.3628 318.7519 15.08830287 27235,6917.91,95.438,541.195,538.355,0.0
52628.0,STARLINK-4001,PAYLOAD,2022-11-07 13:01:33,15.08833923,0.0002141,53.2189,352.6054,41.2699,318.8455,8.1374e-05,1.007e-05,0.0,0 STARLINK-4001,1 52628U 22052AG  22311.54274926  .00001007  00000-0  81374-4 0  9997,2 52628  53.2189 352.6054 0002141  41.2699 318.8455 15.08833923 26887,6917.899,95.438,541.245,538.283,0.0
52628.0,STARLINK-4001,PAYLOAD,2022-11-08 04:55:24,15.08851332,0.0002137,53.2179,349.6316,35.9809,324.1326,0.00048061,7.371e-05,0.0,0 STARLINK-4001,1 52628U 22052AG  22312.20514600  .00007371  00000-0  48061-3 0  9992,2 52628  53.2179 349.6316 0002137  35.9809 324.1326 15.08851332 27366,6917.846,95.437,541.189,538.232,0.0
52628.0,STARLINK-4001,PAYLOAD,2022-11-08 09:41:33,15.08864857,0.0002157,53.218,348.7401,35.113,325.0004,0.00079732,0.00012433,0.0,0 STARLINK-4001,1 52628U 22052AG  22312.40386255  .00012433  00000-0  79732-3 0  9991,2 52628  53.2180 348.7401 0002157  35.1130 325.0004 15.08864857 27015,6917.804,95.436,541.1619999999998,538.177,0.0
52628.0,STARLINK-4001,PAYLOAD,2022-11-08 19:13:51,15.08883559,0.0002171,53.2178,346.9557,36.1018,324.012,0.00097846,0.00015337,0.0,0 STARLINK-4001,1 52628U 22052AG  22312.80129253  .00015337  00000-0  97846-3 0  9990,2 52628  53.2178 346.9557 0002171  36.1018 324.0120 15.08883559 27070,6917.746999999999,95.435,541.114,538.11,0.0
52628.0,STARLINK-4001,PAYLOAD,2022-11-09 09:32:19,15.08849639,0.0002802,53.2181,344.2805,29.2401,330.8748,-0.00035856,-5.992e-05,0.0,0 STARLINK-4001,1 52628U 22052AG  22313.39745090 -.00005992  00000-0 -35856-3 0  9999,2 52628  53.2181 344.2805 0002802  29.2401 330.8748 15.08849639 27545,6917.851,95.437,541.654,537.778,0.0
52628.0,STARLINK-4001,PAYLOAD,2022-11-09 20:40:01,15.0883562,0.0002038,53.2176,342.1982,32.6649,327.4469,-0.00034683,-5.803e-05,0.0,0 STARLINK-4001,1 52628U 22052AG  22313.86113049 -.00005803  00000-0 -34683-3 0  9992,2 52628  53.2176 342.1982 0002038  32.6649 327.4469 15.08835620 27238,6917.894,95.438,541.169,538.349,0.0
52628.0,STARLINK-4001,PAYLOAD,2022-11-09 23:50:48,15.0883239,0.0002121,53.2159,341.6015,34.7477,325.3654,-5.8049e-05,-1.212e-05,0.0,0 STARLINK-4001,1 52628U 22052AG  22313.99361247 -.00001212  00000-0 -58049-4 0  9994,2 52628  53.2159 341.6015 0002121  34.7477 325.3654 15.08832390 27633,6917.904,95.438,541.236,538.3009999999998,0.0
52628.0,STARLINK-4001,PAYLOAD,2022-11-10 10:58:30,15.08820003,0.0001974,53.2173,339.5218,33.0024,327.1091,-0.00020498,-3.547e-05,0.0,0 STARLINK-4001,1 52628U 22052AG  22314.45730215 -.00003547  00000-0 -20498-3 0  9990,2 52628  53.2173 339.5218 0001974  33.0024 327.1091 15.08820003 27324,6917.941999999999,95.439,541.172,538.441,0.0
52628.0,STARLINK-4001,PAYLOAD,2022-11-10 18:55:27,15.08818076,0.0001885,53.2171,338.0345,33.1658,326.9452,0.00010758,1.423e-05,0.0,0 STARLINK-4001,1 52628U 22052AG  22314.78850805  .00001423  00000-0  10758-3 0  9991,2 52628  53.2171 338.0345 0001885  33.1658 326.9452 15.08818076 27372,6917.946999999999,95.439,541.116,538.508,0.0
52628.0,STARLINK-4001,PAYLOAD,2022-11-11 09:13:55,15.08835846,0.000218,53.2172,335.3578,32.1196,327.9929,0.00024887,3.674e-05,0.0,0 STARLINK-4001,1 52628U 22052AG  22315.38466945  .00003674  00000-0  24887-3 0  9994,2 52628  53.2172 335.3578 0002180  32.1196 327.9929 15.08835846 27842,6917.893,95.438,541.266,538.25,0.0
52628.0,STARLINK-4001,PAYLOAD,2022-11-11 18:46:14,15.08846686,0.0002127,53.2174,333.574,35.9772,324.1363,0.00055816,8.608e-05,0.0,0 STARLINK-4001,1 52628U 22052AG  22315.78210907  .00008608  00000-0  55816-3 0  9991,2 52628  53.2174 333.5740 0002127  35.9772 324.1363 15.08846686 27527,6917.86,95.437,541.196,538.254,0.0
52628.0,STARLINK-4001,PAYLOAD,2022-11-12 01:07:46,15.08856385,0.0002181,53.2172,332.3848,35.9066,324.2073,0.000781,0.00012169,0.0,0 STARLINK-4001,1 52628U 22052AG  22316.04706733  .00012169  00000-0  78100-3 0  9996,2 52628  53.2172 332.3848 0002181  35.9066 324.2073 15.08856385 27949,6917.83,95.437,541.2040000000002,538.187,0.0
52628.0,STARLINK-4001,PAYLOAD,2022-11-12 07:29:19,15.08849228,0.0002069,53.2174,331.1944,34.7099,325.4028,0.00042823,6.535e-05,0.0,0 STARLINK-4001,1 52628U 22052AG  22316.31202841  .00006535  00000-0  42823-3 0  9990,2 52628  53.2174 331.1944 0002069  34.7099 325.4028 15.08849228 27988,6917.852,95.437,541.148,538.286,0.0
52628.0,STARLINK-4001,PAYLOAD,2022-11-12 20:12:23,15.08869341,0.0002244,53.2172,328.8163,37.4505,322.6644,0.00070508,0.0001095999999999,0.0,0 STARLINK-4001,1 52628U 22052AG  22316.84193932  .00010960  00000-0  70508-3 0  9996,2 52628  53.2172 328.8163 0002244  37.4505 322.6644 15.08869341 27687,6917.791,95.436,541.2080000000002,538.1030000000002,0.0
52628.0,STARLINK-4001,PAYLOAD,2022-11-13 02:33:55,15.08885238,0.0002293,53.217,327.6269,31.5862,328.5267,0.0012974,0.00020446,0.0,0 STARLINK-4001,1 52628U 22052AG  22317.10689214  .00020446  00000-0  12974-2 0  9991,2 52628  53.2170 327.6269 0002293  31.5862 328.5267 15.08885238 28101,6917.7419999999975,95.435,541.193,538.021,0.0
52628.0,STARLINK-4001,PAYLOAD,2022-11-13 07:20:05,15.08857363,0.0002302,53.2175,326.7354,34.9034,325.2109,-9.001799999999999e-05,-1.721e-05,0.0,0 STARLINK-4001,1 52628U 22052AG  22317.30561345 -.00001721  00000-0 -90018-4 0  9991,2 52628  53.2175 326.7354 0002302  34.9034 325.2109 15.08857363 28130,6917.8269999999975,95.436,541.285,538.1,0.0
52628.0,STARLINK-4001,PAYLOAD,2022-11-13 10:30:51,15.08856502,0.000224,53.2175,326.1404,34.9963,325.1176,4.4795e-05,4.25e-06,0.0,0 STARLINK-4001,1 52628U 22052AG  22317.43809273  .00000425  00000-0  44795-4 0  9999,2 52628  53.2175 326.1404 0002240  34.9963 325.1176 15.08856502 27778,6917.83,95.437,541.245,538.145,0.0
52628.0,STARLINK-4001,PAYLOAD,2022-11-14 07:10:52,15.08834997,0.0002256,53.2182,322.2743,32.95,327.1632,0.00026147,3.875e-05,0.0,0 STARLINK-4001,1 52628U 22052AG  22318.29922032  .00003875  00000-0  26147-3 0  9995,2 52628  53.2182 322.2743 0002256  32.9500 327.1632 15.08834997 28281,6917.896,95.438,541.321,538.2,0.0
52628.0,STARLINK-4001,PAYLOAD,2022-11-14 11:57:01,15.08842652,0.0002314,53.2176,321.3819,38.1382,321.9773,0.00026997,4.011e-05,0.0,0 STARLINK-4001,1 52628U 22052AG  22318.49793955  .00004011  00000-0  26997-3 0  9993,2 52628  53.2176 321.3819 0002314  38.1382 321.9773 15.08842652 27935,6917.871999999999,95.437,541.3380000000002,538.136,0.0
52628.0,STARLINK-4001,PAYLOAD,2022-11-15 00:40:07,15.08831492,0.0002363,53.2178,319.0027,40.0343,320.0823,0.0001571,2.212e-05,0.0,0 STARLINK-4001,1 52628U 22052AG  22319.02786544  .00002212  00000-0  15710-3 0  9991,2 52628  53.2178 319.0027 0002363  40.0343 320.0823 15.08831492 28392,6917.906,95.438,541.406,538.137,0.0
52628.0,STARLINK-4001,PAYLOAD,2022-11-15 11:47:49,15.08830945,0.0002325,53.2177,316.9213,39.0784,321.0376,-5.8469000000000016e-06,-3.81e-06,0.0,0 STARLINK-4001,1 52628U 22052AG  22319.49154853 -.00000381  00000-0 -58469-5 0  9991,2 52628  53.2177 316.9213 0002325  39.0784 321.0376 15.08830945 28081,6917.908,95.438,541.381,538.165,0.0
52628.0,STARLINK-4001,PAYLOAD,2022-11-16 10:03:13,15.08839549,0.0002445,53.2182,312.7589,36.9471,323.1690000000001,0.00016558,2.348e-05,0.0,0 STARLINK-4001,1 52628U 22052AG  22320.41891073  .00002348  00000-0  16558-3 0  9991,2 52628  53.2182 312.7589 0002445  36.9471 323.1690 15.08839549 28608,6917.882,95.438,541.438,538.055,0.0
52628.0,STARLINK-4001,PAYLOAD,2022-11-16 16:24:46,15.08846368,0.0002409,53.2179,311.5696,37.159,322.9568,0.00024453,3.606e-05,0.0,0 STARLINK-4001,1 52628U 22052AG  22320.68386760  .00003606  00000-0  24453-3 0  9993,2 52628  53.2179 311.5696 0002409  37.1590 322.9568 15.08846368 28265,6917.861,95.437,541.3919999999998,538.059,0.0
52628.0,STARLINK-4001,PAYLOAD,2022-11-17 11:29:24,15.08841925,0.0002421,53.2178,308.0017,36.9902,323.1257,0.00015652,2.204e-05,0.0,0 STARLINK-4001,1 52628U 22052AG  22321.47875092  .00002204  00000-0  15652-3 0  9996,2 52628  53.2178 308.0017 0002421  36.9902 323.1257 15.08841925 28385,6917.875,95.437,541.414,538.065,0.0
52628.0,STARLINK-4001,PAYLOAD,2022-11-18 08:09:24,15.08843417,0.0002335,53.2169,304.1362,37.3169,322.7985,9.1658e-05,1.171e-05,0.0,0 STARLINK-4001,1 52628U 22052AG  22322.33986889  .00001171  00000-0  91658-4 0  9992,2 52628  53.2169 304.1362 0002335  37.3169 322.7985 15.08843417 28515,6917.87,95.437,541.35,538.12,0.0
